*******************************************************************************
JPL/HORIZONS                  66146 (1998 TU3)             2021-Aug-15 06:00:31
Rec #:   66146 (+COV) Soln.date: 2021-May-14_05:53:22   # obs: 1472 (1982-2020)
 
IAU76/J2000 helio. ecliptic osc. elements (au, days, deg., period=Julian yrs):
 
  EPOCH=  2456438.5 ! 2013-May-26.00 (TDB)         Residual RMS= .33878
   EC= .4837396635751569   QR= .4063483308426314   TP= 2456354.745337856
   OM= 102.2099948772998   W=  84.67751022208505   IN= 5.412544249028977
   A= .7870996514212891    MA= 118.2138835272801   ADIST= 1.167850971999947
   PER= .6983200000000001  N= 1.411430447          ANGMOM= .013357019
   DAN= .57702             DDN= .63124             L= 186.8638055
   B= 5.3891381            MOID= .0731355          TP= 2013-Mar-03.2453378560
 
Asteroid physical parameters (km, seconds, rotational period in hours):
   GM= n.a.                RAD= 1.432              ROTPER= 2.375
   H= 14.49                G= .150                 B-V= n.a.
                           ALBEDO= .224            STYP= n.a.
 
ASTEROID comments: 
1: soln ref.= JPL#292, OCC=0
2: source=ORB
*******************************************************************************
 

  
*******************************************************************************
Ephemeris / WWW_USER Sun Aug 15 06:00:31 2021 Pasadena, USA      / Horizons
*******************************************************************************
Target body name: 66146 (1998 TU3)                {source: JPL#292}
Center body name: Solar System Barycenter (0)     {source: DE441}
Center-site name: BODY CENTER
*******************************************************************************
Start time      : A.D. 2021-Aug-10 00:00:00.0000 TDB
Stop  time      : A.D. 2021-Sep-14 00:00:00.0000 TDB
Step-size       : 1440 minutes
*******************************************************************************
Center geodetic : 0.00000000,0.00000000,0.0000000 {E-lon(deg),Lat(deg),Alt(km)}
Center cylindric: 0.00000000,0.00000000,0.0000000 {E-lon(deg),Dxy(km),Dz(km)}
Center radii    : (undefined)                                                  
Small perturbers: Yes                             {source: SB441-N16}
Output units    : AU-D
Output type     : GEOMETRIC cartesian states
Output format   : 3 (position, velocity, LT, range, range-rate)
Reference frame : Ecliptic of J2000.0
*******************************************************************************
Initial IAU76/J2000 heliocentric ecliptic osculating elements (au, days, deg.):
  EPOCH=  2456438.5 ! 2013-May-26.00 (TDB)         Residual RMS= .33878        
   EC= .4837396635751569   QR= .4063483308426314   TP= 2456354.745337856       
   OM= 102.2099948772998   W=  84.67751022208505   IN= 5.412544249028977       
  Equivalent ICRF heliocentric cartesian coordinates (au, au/d):
   X= 1.002582026533365E+00  Y=-2.885902398331488E-01  Z=-2.186316184628725E-01
  VX= 8.531724227528461E-03 VY= 9.818654943496799E-03 VZ= 3.171455643226790E-03
Asteroid physical parameters (km, seconds, rotational period in hours):        
   GM= n.a.                RAD= 1.432              ROTPER= 2.375               
   H= 14.49                G= .150                 B-V= n.a.                   
                           ALBEDO= .224            STYP= n.a.                  
*******************************************************************************
JDTDB
   X     Y     Z
   VX    VY    VZ
   LT    RG    RR
*******************************************************************************
$$SOE
2459457.500000000 = A.D. 2021-Aug-31 00:00:00.0000 TDB 
 X = 4.024160082638579E-01 Y =-6.392651051365222E-01 Z =-2.518787636192955E-02
 VX= 1.984252022104845E-02 VY= 1.273498024498401E-03 VZ=-1.863205798202741E-03
 LT= 4.365134108873791E-03 RG= 7.557995418547501E-01 RR= 9.549853804219629E-03
2459458.500000000 = A.D. 2021-Sep-01 00:00:00.0000 TDB 
 X = 4.221217821153838E-01 Y =-6.377807117160272E-01 Z =-2.704257060864768E-02
 VX= 1.956859638694016E-02 VY= 1.692511244497092E-03 VZ=-1.846088059254941E-03
 LT= 4.419997559794111E-03 RG= 7.652988539115901E-01 RR= 9.448338624817297E-03
2459459.500000000 = A.D. 2021-Sep-02 00:00:00.0000 TDB 
 X = 4.415524214627068E-01 Y =-6.358855129994433E-01 Z =-2.887987331783680E-02
 VX= 1.929233194266517E-02 VY= 2.095232195716974E-03 VZ=-1.828432634025864E-03
 LT= 4.474267524401475E-03 RG= 7.746954069987761E-01 RR= 9.344386093890959E-03
2459460.500000000 = A.D. 2021-Sep-03 00:00:00.0000 TDB 
 X = 4.607058187672293E-01 Y =-6.335954365330042E-01 Z =-3.069927557290740E-02
 VX= 1.901418411260760E-02 VY= 2.482384343641304E-03 VZ=-1.810296118135517E-03
 LT= 4.527930767036285E-03 RG= 7.839869094328888E-01 RR= 9.238282629713757E-03
2459461.500000000 = A.D. 2021-Sep-04 00:00:00.0000 TDB 
 X = 4.795802979243984E-01 Y =-6.309257041535213E-01 Z =-3.250032231465773E-02
 VX= 1.873455948503181E-02 VY= 2.854655829278413E-03 VZ=-1.791729721914741E-03
 LT= 4.580975623868717E-03 RG= 7.931713416843981E-01 RR= 9.130286601372191E-03
2459462.500000000 = A.D. 2021-Sep-05 00:00:00.0000 TDB 
 X = 4.981745663578747E-01 Y =-6.278908667280151E-01 Z =-3.428260722036586E-02
 VX= 1.845381937151144E-02 VY= 3.212700659141191E-03 VZ=-1.772779790199925E-03
 LT= 4.633391848933212E-03 RG= 8.022469297193604E-01 RR= 9.020631063568672E-03
2459463.500000000 = A.D. 2021-Sep-06 00:00:00.0000 TDB 
 X = 5.164876721805677E-01 Y =-6.245048376500159E-01 Z =-3.604576807663197E-02
 VX= 1.817228459190474E-02 VY= 3.557139994741236E-03 VZ=-1.753488270882807E-03
 LT= 4.685170475169420E-03 RG= 8.112121209394054E-01 RR= 8.909526222721009E-03
2459464.500000000 = A.D. 2021-Sep-07 00:00:00.0000 TDB 
 X = 5.345189658790691E-01 Y =-6.207809250129889E-01 Z =-3.778948259719912E-02
 VX= 1.789023974583167E-02 VY= 3.888563503183901E-03 VZ=-1.733893137104267E-03
 LT= 4.736303688990948E-03 RG= 8.200655624639871E-01 RR= 8.797161659424187E-03
2459465.500000000 = A.D. 2021-Sep-08 00:00:00.0000 TDB 
 X = 5.522680660359827E-01 Y =-6.167318624154826E-01 Z =-3.951346464168323E-02
 VX= 1.760793702568467E-02 VY= 4.207530738705733E-03 VZ=-1.714028767595025E-03
 LT= 4.786784717042808E-03 RG= 8.288060815230447E-01 RR= 8.683708330522127E-03
2459466.500000000 = A.D. 2021-Sep-09 00:00:00.0000 TDB 
 X = 5.697348286568733E-01 Y =-6.123698383792819E-01 Z =-4.121746079545070E-02
 VX= 1.732559962067124E-02 VY= 4.514572531699741E-03 VZ=-1.693926289285751E-03
 LT= 4.836607723937371E-03 RG= 8.374326677505297E-01 RR= 8.569320372189028E-03
2459467.500000000 = A.D. 2021-Sep-10 00:00:00.0000 TDB 
 X = 5.869193197154733E-01 Y =-6.077065243825066E-01 Z =-4.290124727481937E-02
 VX= 1.704342475627747E-02 VY= 4.810192367190875E-03 VZ=-1.673613885942700E-03
 LT= 4.885767719876969E-03 RG= 8.459444571897585E-01 RR= 8.454136723610634E-03
2459468.500000000 = A.D. 2021-Sep-11 00:00:00.0000 TDB 
 X = 6.038217905727919E-01 Y =-6.027531015253599E-01 Z =-4.456462712534410E-02
 VX= 1.676158640886459E-02 VY= 5.094867739095879E-03 VZ=-1.653117076237942E-03
 LT= 4.934260477179407E-03 RG= 8.543407178402505E-01 RR= 8.338282589111916E-03
2459469.500000000 = A.D. 2021-Sep-12 00:00:00.0000 TDB 
 X = 6.204426559633304E-01 Y =-5.975202858580846E-01 Z =-4.620742768418584E-02
 VX= 1.648023773086060E-02 VY= 5.369051470110539E-03 VZ=-1.632458964338766E-03
 LT= 4.982082454820849E-03 RG= 8.626208365927338E-01 RR= 8.221870754932385E-03
2459470.500000000 = A.D. 2021-Sep-13 00:00:00.0000 TDB 
 X = 6.367824742751100E-01 Y =-5.920183524093801E-01 Z =-4.782949828050343E-02
 VX= 1.619951321816645E-02 VY= 5.633172989877340E-03 VZ=-1.611660465800414E-03
 LT= 5.029230730199655E-03 RG= 8.707843074144209E-01 RR= 8.105002775309608E-03
2459471.500000000 = A.D. 2021-Sep-14 00:00:00.0000 TDB 
 X = 6.528419298800839E-01 Y =-5.862571579597221E-01 Z =-4.943070815044486E-02
 VX= 1.591953064793900E-02 VY= 5.887639566322992E-03 VZ=-1.590740511269985E-03
 LT= 5.075702937405241E-03 RG= 8.788307206605932E-01 RR= 7.987770041107485E-03
